OBJECT_NAME,OBJECT_ID,EPOCH,MEAN_MOTION,ECCENTRICITY,INCLINATION,RA_OF_ASC_NODE,ARG_OF_PERICENTER,MEAN_ANOMALY,EPHEMERIS_TYPE,CLASSIFICATION_TYPE,NORAD_CAT_ID,ELEMENT_SET_NO,REV_AT_EPOCH,BSTAR,MEAN_MOTION_DOT,MEAN_MOTION_DDOT
TEVEL2-4,2025-052D,2026-06-11T16:54:40.561632,15.34420215,.00047322,97.3917,59.0886,113.7416,246.4323,0,U,63213,999,6927,.53861038E-3,.17902E-3,0
TEVEL2-5,2025-052E,2026-06-11T15:49:23.886336,15.34247244,.00046165,97.3921,58.9918,115.2111,244.9611,0,U,63214,999,6926,.53361723E-3,.17637E-3,0
TEVEL2-6,2025-052F,2026-06-11T16:06:58.241952,15.34210437,.00045055,97.3921,58.9890,114.2026,245.9689,0,U,63215,999,6926,.52870278E-3,.17453E-3,0
TEVEL2-1,2025-052H,2026-06-11T23:01:50.060352,15.33693147,.00045093,97.3891,58.9077,123.4340,236.7334,0,U,63217,999,6929,.49545202E-3,.16082E-3,0
TEVEL2-3,2025-052J,2026-06-11T16:38:35.636928,15.33739822,.00044647,97.3895,58.6629,124.0241,236.1426,0,U,63218,999,6925,.51483366E-3,.1674E-3,0
TEVEL2-2,2025-052K,2026-06-11T23:02:19.638528,15.33701780,.00044495,97.3890,58.9106,123.8478,236.3189,0,U,63219,999,6929,.50082788E-3,.16262E-3,0
TEVEL2-9,2025-052AD,2026-06-11T16:03:50.233824,15.31729290,.00071803,97.3955,58.0067,145.2035,214.9678,0,U,63237,999,6918,.51070091E-3,.15595E-3,0
TEVEL2-7,2025-052AE,2026-06-11T15:27:08.309088,15.31438086,.0007384,97.3956,57.8996,146.6025,213.5683,0,U,63238,999,6917,.50452758E-3,.15266E-3,0
TEVEL2-8,2025-052AF,2026-06-11T15:38:56.320800,15.31421974,.00073852,97.3954,57.8849,147.5513,212.6184,0,U,63239,999,6917,.51056585E-3,.15443E-3,0
FORESAIL-1 PRIME,2025-276DS,2026-06-11T17:24:39.939264,15.18652185,.00038444,97.4203,236.0962,114.4750,245.6885,0,U,66778,999,2957,.20353098E-3,.415E-4,0
